EUTELSAT 21B            
1 38992U 12062B   25330.22925990  .00000149  00000+0  00000+0 0  9995
2 38992   0.0693   4.7448 0003327 253.1092 271.6904  1.00270902 47792
EUTELSAT 70B            
1 39020U 12069A   25330.45294794 -.00000025  00000+0  00000+0 0  9995
2 39020   0.0637 345.2417 0004494 251.3554  62.6102  1.00271539 47471
EUTELSAT 117 WEST A     
1 39122U 13012A   25330.38100441  .00000006  00000+0  00000+0 0  9992
2 39122   0.0166   6.3417 0002760 235.2420 204.3586  1.00271657 46407
EUTELSAT 7B             
1 39163U 13022A   25330.36905410  .00000067  00000+0  00000+0 0  9992
2 39163   0.0747  19.2332 0003865 294.9886 251.1986  1.00271687 45924
EXPRESS-AT1             
1 39612U 14010A   25330.52141505  .00000098  00000+0  00000+0 0  9998
2 39612   0.0150 279.3036 0000549 206.8410 183.2754  1.00271181 42780
EXPRESS-AT2             
1 39613U 14010B   25330.53805514 -.00000262  00000+0  00000+0 0  9991
2 39613   0.0181 287.5853 0001150   4.9121 106.8101  1.00272376 42467
EUTELSAT 3B             
1 39773U 14030A   25330.36827409  .00000039  00000+0  00000+0 0  9999
2 39773   0.0635 344.9281 0004696 234.1733 342.1634  1.00271426 42039
EUTELSAT 115 WEST B     
1 40425U 15010B   25330.51086443 -.00000006  00000+0  00000+0 0  9991
2 40425   0.0198 150.8046 0000437 166.0059 177.8989  1.00270655 39366
